GLOBALSTAR M001         
1 25162U 98008A   24178.86880949 -.00000036  00000+0  46591-3 0  9992
2 25162  52.0044 287.3891 0001760 198.3706 317.3685 12.38187093199698
GLOBALSTAR M004         
1 25163U 98008B   24177.99089613 -.00000087  00000+0  91359-4 0  9994
2 25163  52.0010  60.7956 0002324 211.6072 252.3307 12.63362969216660
GLOBALSTAR M002         
1 25164U 98008C   24177.97272388 -.00000064  00000+0  24830-3 0  9990
2 25164  52.0032  53.3471 0000686 188.1714 171.9095 11.61502646142679
GLOBALSTAR M003         
1 25165U 98008D   24178.03915637  .00000067  00000+0  16704-2 0  9992
2 25165  51.9897  74.9086 0007574 300.0482 164.3327 12.12013817190039
GLOBALSTAR M014         
1 25306U 98023A   24177.78288292 -.00000055  00000+0  41816-3 0  9998
2 25306  51.9862 344.5409 0001606  84.0393  18.9724 11.65468930149613
GLOBALSTAR M006         
1 25307U 98023B   24178.91469897 -.00000139  00000+0 -12873-2 0  9991
2 25307  51.9965  20.8742 0003735 172.3055 331.2211 11.58163420175667
GLOBALSTAR M015         
1 25308U 98023C   24178.11897837 -.00000097  00000+0 -53321-3 0  9990
2 25308  51.9821 105.0063 0012153 162.4163 300.1536 11.48852912153150
GLOBALSTAR M008         
1 25309U 98023D   24178.17849572 -.00000094  00000+0  17507-4 0  9993
2 25309  51.9945 150.1931 0002345 141.9358 231.7349 12.36044669193822
